LANDSAT 9               
1 49260U 21088A   24128.79325956  .00000692  00000+0  16368-3 0  9996
2 49260  98.1886 199.0926 0001318  88.8840 271.2509 14.57113255138808
